[{"OBJECT_NAME":"TEVEL2-8","OBJECT_ID":"2025-052AF","EPOCH":"2026-03-09T16:02:08.542752","MEAN_MOTION":15.28392908,"ECCENTRICITY":0.0008031,"INCLINATION":97.4055,"RA_OF_ASC_NODE":324.2923,"ARG_OF_PERICENTER":124.9191,"MEAN_ANOMALY":235.2804,"EPHEMERIS_TYPE":0,"CLASSIFICATION_TYPE":"U","NORAD_CAT_ID":63239,"ELEMENT_SET_NO":999,"REV_AT_EPOCH":5480,"BSTAR":0.00069303947,"MEAN_MOTION_DOT":0.0001913,"MEAN_MOTION_DDOT":0},{"OBJECT_NAME":"STARLINK-36425","OBJECT_ID":"2026-008Y","EPOCH":"2026-03-09T09:24:05.718240","MEAN_MOTION":15.27592602,"ECCENTRICITY":0.00018644,"INCLINATION":42.9947,"RA_OF_ASC_NODE":207.1682,"ARG_OF_PERICENTER":144.4244,"MEAN_ANOMALY":215.6732,"EPHEMERIS_TYPE":0,"CLASSIFICATION_TYPE":"U","NORAD_CAT_ID":67467,"ELEMENT_SET_NO":999,"REV_AT_EPOCH":952,"BSTAR":0.001005985,"MEAN_MOTION_DOT":0.00027535,"MEAN_MOTION_DDOT":0}]
